{
  "type": "FeatureCollection",
  "name": "North_India_Administrative_Boundaries",
  "crs": {
    "type": "name",
    "properties": {
      "name": "urn:ogc:def:crs:OGC:1.3:CRS84"
    }
  },
  "features": [
    {
      "type": "Feature",
      "id": "state_jk",
      "properties": {
        "state_code": "JK",
        "state_name": "Jammu & Kashmir",
        "type": "Union Territory / Region",
        "primary_hazard": "Landslide, Cloudburst & Flash Floods",
        "monitored_stations": 6
      },
      "geometry": {
        "type": "Polygon",
        "coordinates": [
          [
            [74.0, 32.5],
            [75.5, 32.3],
            [76.2, 33.2],
            [76.8, 34.0],
            [77.8, 34.5],
            [77.6, 35.5],
            [75.8, 35.2],
            [74.5, 34.8],
            [73.8, 34.0],
            [74.0, 32.5]
          ]
        ]
      }
    },
    {
      "type": "Feature",
      "id": "state_hp",
      "properties": {
        "state_code": "HP",
        "state_name": "Himachal Pradesh",
        "type": "State",
        "primary_hazard": "Landslide & Flash Floods",
        "monitored_stations": 11
      },
      "geometry": {
        "type": "Polygon",
        "coordinates": [
          [
            [75.7, 31.8],
            [76.4, 32.8],
            [77.2, 33.2],
            [78.7, 32.5],
            [79.0, 31.5],
            [78.2, 31.1],
            [77.4, 30.5],
            [76.5, 30.9],
            [75.7, 31.8]
          ]
        ]
      }
    },
    {
      "type": "Feature",
      "id": "state_up",
      "properties": {
        "state_code": "UP",
        "state_name": "Uttar Pradesh",
        "type": "State",
        "primary_hazard": "Riverine Flood & Extreme Rain",
        "monitored_stations": 31
      },
      "geometry": {
        "type": "Polygon",
        "coordinates": [
          [
            [77.1, 28.0],
            [77.3, 29.8],
            [78.5, 30.1],
            [80.0, 28.8],
            [81.2, 28.5],
            [83.0, 27.5],
            [84.3, 27.2],
            [84.4, 25.8],
            [83.3, 24.5],
            [82.0, 24.8],
            [80.8, 25.0],
            [78.8, 24.5],
            [78.2, 25.8],
            [77.5, 27.4],
            [77.1, 28.0]
          ]
        ]
      }
    },
    {
      "type": "Feature",
      "id": "state_br",
      "properties": {
        "state_code": "BR",
        "state_name": "Bihar",
        "type": "State",
        "primary_hazard": "Severe Transboundary Riverine Flooding",
        "monitored_stations": 16
      },
      "geometry": {
        "type": "Polygon",
        "coordinates": [
          [
            [83.3, 24.5],
            [84.0, 27.3],
            [85.5, 27.1],
            [87.5, 26.5],
            [88.1, 25.8],
            [87.6, 24.8],
            [86.0, 24.6],
            [84.5, 24.5],
            [83.3, 24.5]
          ]
        ]
      }
    }
  ]
}
