{
  "type": "FeatureCollection",
  "name": "North_India_Major_Rivers",
  "crs": {
    "type": "name",
    "properties": {
      "name": "urn:ogc:def:crs:OGC:1.3:CRS84"
    }
  },
  "features": [
    {
      "type": "Feature",
      "id": "river_ganga",
      "properties": {
        "name": "Ganga River",
        "basin": "Ganges Basin",
        "type": "Perennial Major River",
        "origin": "Gangotri Glacier, Uttarakhand",
        "length_km": 2525,
        "flood_vulnerability": "High"
      },
      "geometry": {
        "type": "LineString",
        "coordinates": [
          [78.59, 30.15],
          [78.17, 29.95],
          [78.85, 29.40],
          [79.80, 28.30],
          [80.33, 26.45],
          [81.85, 25.43],
          [82.97, 25.32],
          [83.55, 25.56],
          [84.14, 25.75],
          [85.14, 25.61],
          [86.00, 25.45],
          [86.98, 25.24],
          [87.57, 25.28],
          [87.95, 24.80]
        ]
      }
    },
    {
      "type": "Feature",
      "id": "river_yamuna",
      "properties": {
        "name": "Yamuna River",
        "basin": "Ganges Basin",
        "type": "Major Tributary",
        "origin": "Yamunotri, Uttarakhand",
        "length_km": 1376,
        "flood_vulnerability": "Moderate-High"
      },
      "geometry": {
        "type": "LineString",
        "coordinates": [
          [78.45, 31.01],
          [77.70, 30.43],
          [77.28, 28.67],
          [77.68, 27.50],
          [78.01, 27.18],
          [79.03, 26.76],
          [80.20, 25.92],
          [81.88, 25.42]
        ]
      }
    },
    {
      "type": "Feature",
      "id": "river_ghaghara",
      "properties": {
        "name": "Ghaghara (Saryu) River",
        "basin": "Ganges Basin",
        "type": "Perennial Transboundary River",
        "origin": "Tibetan Plateau",
        "length_km": 1080,
        "flood_vulnerability": "Critical"
      },
      "geometry": {
        "type": "LineString",
        "coordinates": [
          [80.12, 29.80],
          [80.95, 28.40],
          [81.65, 27.70],
          [82.20, 26.79],
          [83.15, 26.35],
          [84.15, 25.95],
          [84.65, 25.77]
        ]
      }
    },
    {
      "type": "Feature",
      "id": "river_kosi",
      "properties": {
        "name": "Kosi River",
        "basin": "Ganges Basin",
        "type": "Transboundary River (Sorrow of Bihar)",
        "origin": "Himalayas, Tibet/Nepal",
        "length_km": 729,
        "flood_vulnerability": "Critical"
      },
      "geometry": {
        "type": "LineString",
        "coordinates": [
          [87.05, 27.05],
          [86.98, 26.50],
          [86.85, 26.05],
          [86.75, 25.75],
          [87.25, 25.35]
        ]
      }
    },
    {
      "type": "Feature",
      "id": "river_gandak",
      "properties": {
        "name": "Gandak River",
        "basin": "Ganges Basin",
        "type": "Major Himalayan River",
        "origin": "Nhubine Himal Glacier, Nepal",
        "length_km": 630,
        "flood_vulnerability": "High"
      },
      "geometry": {
        "type": "LineString",
        "coordinates": [
          [83.98, 27.42],
          [84.25, 27.15],
          [84.85, 26.50],
          [85.12, 25.90],
          [85.22, 25.62]
        ]
      }
    },
    {
      "type": "Feature",
      "id": "river_jhelum",
      "properties": {
        "name": "Jhelum River",
        "basin": "Indus Basin",
        "type": "Perennial Mountain River",
        "origin": "Verinag Spring, Kashmir",
        "length_km": 725,
        "flood_vulnerability": "High"
      },
      "geometry": {
        "type": "LineString",
        "coordinates": [
          [75.25, 33.55],
          [75.15, 33.73],
          [74.80, 34.08],
          [74.58, 34.25],
          [74.35, 34.20],
          [74.12, 34.18]
        ]
      }
    },
    {
      "type": "Feature",
      "id": "river_chenab",
      "properties": {
        "name": "Chenab River",
        "basin": "Indus Basin",
        "type": "Major Himalayan River",
        "origin": "Baralacha Pass, Himachal Pradesh",
        "length_km": 960,
        "flood_vulnerability": "Moderate-High"
      },
      "geometry": {
        "type": "LineString",
        "coordinates": [
          [77.42, 32.75],
          [76.50, 33.15],
          [75.75, 33.15],
          [75.12, 33.18],
          [74.85, 32.95],
          [74.55, 32.85]
        ]
      }
    },
    {
      "type": "Feature",
      "id": "river_beas",
      "properties": {
        "name": "Beas River",
        "basin": "Indus Basin",
        "type": "Himalayan River",
        "origin": "Rohtang Pass, Himachal Pradesh",
        "length_km": 470,
        "flood_vulnerability": "High (Monsoon & Flash Floods)"
      },
      "geometry": {
        "type": "LineString",
        "coordinates": [
          [77.18, 32.37],
          [77.19, 32.24],
          [77.10, 31.95],
          [76.92, 31.71],
          [76.55, 31.85],
          [75.95, 31.95]
        ]
      }
    },
    {
      "type": "Feature",
      "id": "river_sutlej",
      "properties": {
        "name": "Sutlej River",
        "basin": "Indus Basin",
        "type": "Transboundary Himalayan River",
        "origin": "Lake Rakshastal, Tibet",
        "length_km": 1450,
        "flood_vulnerability": "Moderate-High"
      },
      "geometry": {
        "type": "LineString",
        "coordinates": [
          [78.60, 31.65],
          [78.25, 31.55],
          [77.58, 31.40],
          [76.85, 31.35],
          [76.35, 31.30]
        ]
      }
    }
  ]
}
